[{"OBJECT_NAME":"STARLINK-32460","OBJECT_ID":"2024-207C","EPOCH":"2026-03-09T00:20:23.620128","MEAN_MOTION":15.27590764,"ECCENTRICITY":0.00017001,"INCLINATION":43.0002,"RA_OF_ASC_NODE":285.1359,"ARG_OF_PERICENTER":273.0231,"MEAN_ANOMALY":87.0426,"EPHEMERIS_TYPE":0,"CLASSIFICATION_TYPE":"U","NORAD_CAT_ID":61914,"ELEMENT_SET_NO":999,"REV_AT_EPOCH":7462,"BSTAR":0.0010471334,"MEAN_MOTION_DOT":0.00028675,"MEAN_MOTION_DDOT":0},{"OBJECT_NAME":"TRANSPORTER-12 OBJECT BT","OBJECT_ID":"2025-009BT","EPOCH":"2026-03-09T17:08:24.281088","MEAN_MOTION":15.27872239,"ECCENTRICITY":0.00036816,"INCLINATION":97.4094,"RA_OF_ASC_NODE":151.5992,"ARG_OF_PERICENTER":313.5044,"MEAN_ANOMALY":46.5889,"EPHEMERIS_TYPE":0,"CLASSIFICATION_TYPE":"U","NORAD_CAT_ID":62674,"ELEMENT_SET_NO":999,"REV_AT_EPOCH":12136,"BSTAR":0.000510288,"MEAN_MOTION_DOT":0.00013824,"MEAN_MOTION_DDOT":0}]
